[{"name":"GAOFEN-11 01","line1":"1 43585U 18063A   26177.63050105  .00022315  00000+0  32709-3 0  9992","line2":"2 43585  97.1289 244.4846 0002217 312.0857  48.0209 15.55560162441810"},{"name":"ICESAT-2","line1":"1 43613U 18070A   26177.58382570  .00010066  00000+0  36633-3 0  9990","line2":"2 43613  92.0082 293.5176 0006238  98.1260 262.0697 15.28186647433895"},{"name":"HYSIS","line1":"1 43719U 18096A   26177.68544881  .00001753  00000+0  24645-3 0  9994","line2":"2 43719  97.9840 244.3593 0001838  92.3721 267.7700 14.78636493408829"},{"name":"KAZSTSAT","line1":"1 43783U 18099AB  26177.57086376  .00001877  00000+0  15579-3 0  9999","line2":"2 43783  97.4287 209.0735 0008579  44.0875 316.1032 14.99897375412710"},{"name":"SAUDISAT 5A","line1":"1 43831U 18102A   26177.59444074  .00005863  00000+0  21603-3 0  9997","line2":"2 43831  97.3069 238.9940 0011322 100.5573 259.6943 15.28139846417119"},{"name":"SAUDISAT 5B","line1":"1 43833U 18102C   26177.61171819  .00005665  00000+0  20718-3 0  9992","line2":"2 43833  97.3178 242.0977 0012041 102.4138 257.8450 15.28392473417238"},{"name":"GAOFEN-10R","line1":"1 44622U 19066A   26177.59958822  .00001090  00000+0  14076-3 0  9991","line2":"2 44622  98.0499 131.2474 0007138 100.8251 259.3766 14.83018808363772"},{"name":"CARTOSAT-3","line1":"1 44804U 19081A   26177.64156444  .00004772  00000+0  22947-3 0  9992","line2":"2 44804  97.4309 239.3566 0013161 117.8734 242.3836 15.19203878364905"},{"name":"GAOFEN-12 01","line1":"1 44819U 19082A   26177.60959075  .00000382  00000+0  56630-4 0  9996","line2":"2 44819  97.8101 183.7403 0001922  60.5638 299.5766 14.80465594355487"},{"name":"CSG-1","line1":"1 44873U 19092A   26177.57032345  .00000393  00000+0  55902-4 0  9998","line2":"2 44873  97.8889   1.0369 0001450  89.9892 270.1487 14.82160435352868"},{"name":"NEMO-HD","line1":"1 46277U 20061F   26177.65255604  .00010656  00000+0  22955-3 0  9994","line2":"2 46277  97.1922 239.5102 0001810  74.6499 285.4950 15.44776906323447"},{"name":"SENTINEL-6A","line1":"1 46984U 20086A   26177.53267165 -.00000073  00000+0 -53590-4 0  9992","line2":"2 46984  66.0408 115.6420 0007867 270.0557  89.9557 12.80929985261522"},{"name":"CAS500-1","line1":"1 47932U 21022A   26177.67345126  .00006226  00000+0  29067-3 0  9991","line2":"2 47932  97.3897  72.7347 0003575 248.6362 111.4492 15.20175747292207"},{"name":"GAOFEN-12 02","line1":"1 48079U 21026A   26177.62166096  .00000341  00000+0  51709-4 0  9991","line2":"2 48079  97.9923 175.7637 0004410 186.3225 173.7932 14.80302787283152"},{"name":"PLEIADES NEO 3","line1":"1 48268U 21034A   26177.64016031  .00002162  00000+0  28130-3 0  9999","line2":"2 48268  97.8934 252.2709 0001381  88.5498 271.5873 14.81675591279055"},{"name":"PLEIADES NEO 4","line1":"1 49070U 21073E   26177.53884613  .00000879  00000+0  11838-3 0  9991","line2":"2 49070  97.8938 252.1674 0001296  95.5912 264.5449 14.81667702262750"},{"name":"LANDSAT 9","line1":"1 49260U 21088A   26177.19230227  .00000314  00000+0  79879-4 0  9990","line2":"2 49260  98.2278 247.2607 0001275  84.6277 275.5067 14.57102844252317"},{"name":"CSG-2","line1":"1 51444U 22008A   26177.60405543  .00000662  00000+0  89686-4 0  9994","line2":"2 51444  97.8888   1.0652 0001536  87.2583 272.8806 14.82151297237982"},{"name":"GAOFEN-12 03","line1":"1 52912U 22069A   26177.65324228  .00001240  00000+0  17045-3 0  9999","line2":"2 52912  97.8276  65.2844 0002338  94.0992 266.0487 14.80049301216011"},{"name":"SWOT","line1":"1 54754U 22173A   26177.56312513  .00000016  00000+0  12319-4 0  9995","line2":"2 54754  77.6102  22.6524 0000287  87.7587 272.3597 14.00170672180462"},{"name":"GAOFEN-12 04","line1":"1 57654U 23123A   26177.60156259  .00000918  00000+0  12894-3 0  9999","line2":"2 57654  97.9116  95.4833 0003975  87.7632 272.4035 14.79742752154024"},{"name":"PARS 1","line1":"1 59065U 24039Q   26177.63608755  .00010881  00000+0  22507-3 0  9992","line2":"2 59065  97.4819 158.8543 0011529  84.0329 276.2234 15.45912812130102"},{"name":"RESURS-P 4","line1":"1 59371U 24061A   26177.60247524  .00003094  00000+0  10205-3 0  9997","line2":"2 59371  97.2750 125.3372 0002779 116.1338 244.0190 15.32181243125208"},{"name":"LEGION 1","line1":"1 59625U 24081A   26177.52944209  .00003456  00000+0  17958-3 0  9990","line2":"2 59625  97.5020 255.2866 0008595 345.0342  15.0635 15.16725829118954"},{"name":"LEGION 2","line1":"1 59626U 24081B   26177.55955529  .00003999  00000+0  20733-3 0  9998","line2":"2 59626  97.5020 255.4136 0010056 307.9614  52.0710 15.16704081118964"},{"name":"ALOS-4 (DAICHI-4)","line1":"1 60182U 24123A   26177.55949223  .00001890  00000+0  25987-3 0  9992","line2":"2 60182  97.9217 274.6010 0001585  97.0607 263.0785 14.79475300107269"},{"name":"LEGION 3","line1":"1 60452U 24146A   26177.55339692  .00003880  00000+0  21130-3 0  9997","line2":"2 60452  45.0025 340.3206 0008764 222.3478 137.6725 15.16108789103445"},{"name":"LEGION 4","line1":"1 60453U 24146B   26177.55656573  .00003941  00000+0  21432-3 0  9991","line2":"2 60453  45.0018  72.2138 0012725 359.1464   0.9391 15.16099891102295"},{"name":"SENTINEL-2C","line1":"1 60989U 24157A   26177.61309675  .00000088  00000+0  50162-4 0  9994","line2":"2 60989  98.5692 252.2619 0000942  88.3779 271.7512 14.30820155 94330"},{"name":"IONOSFERA-M 1","line1":"1 61735U 24199A   26177.61746128  .00000034  00000+0  34647-4 0  9999","line2":"2 61735  98.7163  50.6896 0002149  97.7814 262.3608 14.22755862129049"}]