OBJECT_NAME,OBJECT_ID,EPOCH,MEAN_MOTION,ECCENTRICITY,INCLINATION,RA_OF_ASC_NODE,ARG_OF_PERICENTER,MEAN_ANOMALY,EPHEMERIS_TYPE,CLASSIFICATION_TYPE,NORAD_CAT_ID,ELEMENT_SET_NO,REV_AT_EPOCH,BSTAR,MEAN_MOTION_DOT,MEAN_MOTION_DDOT
GAOFEN-11 01,2018-063A,2026-06-26T15:07:55.290720,15.55560162,.00022176,97.1289,244.4846,312.0857,48.0209,0,U,43585,999,44181,.32708678E-3,.22315E-3,0
ICESAT-2,2018-070A,2026-06-26T14:00:42.540480,15.28186647,.00062384,92.0082,293.5176,98.1260,262.0697,0,U,43613,999,43389,.36632558E-3,.10066E-3,0
HYSIS,2018-096A,2026-06-26T16:27:02.777184,14.78636493,.0001838,97.9840,244.3593,92.3721,267.7700,0,U,43719,999,40882,.24645E-3,.1753E-4,0
KAZSTSAT,2018-099AB,2026-06-26T13:42:02.628864,14.99897375,.0008579,97.4287,209.0735,44.0875,316.1032,0,U,43783,999,41271,.15579E-3,.1877E-4,0
SAUDISAT 5A,2018-102A,2026-06-26T14:15:59.679936,15.28139846,.00113222,97.3069,238.9940,100.5573,259.6943,0,U,43831,999,41711,.2160305E-3,.5863E-4,0
SAUDISAT 5B,2018-102C,2026-06-26T14:40:52.451616,15.28392473,.00120414,97.3178,242.0977,102.4138,257.8450,0,U,43833,999,41723,.20718022E-3,.5665E-4,0
GAOFEN-10R,2019-066A,2026-06-26T14:23:24.422208,14.83018808,.0007138,98.0499,131.2474,100.8251,259.3766,0,U,44622,999,36377,.14075998E-3,.109E-4,0
CARTOSAT-3,2019-081A,2026-06-26T15:23:51.167616,15.19203878,.00131618,97.4309,239.3566,117.8734,242.3836,0,U,44804,999,36490,.22946957E-3,.4772E-4,0
GAOFEN-12 01,2019-082A,2026-06-26T14:37:48.640800,14.80465594,.00019221,97.8101,183.7403,60.5638,299.5766,0,U,44819,999,35548,.5663045E-4,.382E-5,0
CSG-1,2019-092A,2026-06-26T13:41:15.946080,14.82160435,.000145,97.8889,1.0369,89.9892,270.1487,0,U,44873,999,35286,.55902445E-4,.393E-5,0
NEMO-HD,2020-061F,2026-06-26T15:39:40.841856,15.44776906,.00018104,97.1922,239.5102,74.6499,285.4950,0,U,46277,999,32344,.22955145E-3,.10656E-3,0
SENTINEL-6A,2020-086A,2026-06-26T12:47:02.830560,12.80929985,.0007867,66.0408,115.6420,270.0557,89.9557,0,U,46984,999,26152,-.53590299E-4,-.73E-6,0
CAS500-1,2021-022A,2026-06-26T16:09:46.188864,15.20175747,.00035755,97.3897,72.7347,248.6362,111.4492,0,U,47932,999,29220,.29067312E-3,.6226E-4,0
GAOFEN-12 02,2021-026A,2026-06-26T14:55:11.506944,14.80302787,.00044103,97.9923,175.7637,186.3225,173.7932,0,U,48079,999,28315,.51708648E-4,.341E-5,0
PLEIADES NEO 3,2021-034A,2026-06-26T15:21:49.850784,14.81675591,.00013813,97.8934,252.2709,88.5498,271.5873,0,U,48268,999,27905,.28129952E-3,.2162E-4,0
PLEIADES NEO 4,2021-073E,2026-06-26T12:55:56.305632,14.81667702,.00012962,97.8938,252.1674,95.5912,264.5449,0,U,49070,999,26275,.11837517E-3,.879E-5,0
LANDSAT 9,2021-088A,2026-06-26T04:36:54.916128,14.57102844,.00012754,98.2278,247.2607,84.6277,275.5067,0,U,49260,999,25231,.79878672E-4,.314E-5,0
CSG-2,2022-008A,2026-06-26T14:29:50.389152,14.82151297,.00015363,97.8888,1.0652,87.2583,272.8806,0,U,51444,999,23798,.89686466E-4,.662E-5,0
GAOFEN-12 03,2022-069A,2026-06-26T15:40:40.132992,14.80049301,.00023388,97.8276,65.2844,94.0992,266.0487,0,U,52912,999,21601,.17045359E-3,.124E-4,0
SWOT,2022-173A,2026-06-26T13:30:54.011232,14.00170672,.00002873,77.6102,22.6524,87.7587,272.3597,0,U,54754,999,18046,.12319016E-4,.16E-6,0
GAOFEN-12 04,2023-123A,2026-06-26T14:26:15.007776,14.79742752,.00039751,97.9116,95.4833,87.7632,272.4035,0,U,57654,999,15402,.12894143E-3,.918E-5,0
PARS 1,2024-039Q,2026-06-26T15:15:57.964320,15.45912812,.00115296,97.4819,158.8543,84.0329,276.2234,0,U,59065,999,13010,.22507134E-3,.10881E-3,0
RESURS-P 4,2024-061A,2026-06-26T14:27:33.860736,15.32181243,.00027791,97.2750,125.3372,116.1338,244.0190,0,U,59371,999,12520,.10204551E-3,.3094E-4,0
LEGION 1,2024-081A,2026-06-26T12:42:23.796576,15.16725829,.00085953,97.5020,255.2866,345.0342,15.0635,0,U,59625,999,11895,.17958481E-3,.3456E-4,0
LEGION 2,2024-081B,2026-06-26T13:25:45.577056,15.16704081,.00100567,97.5020,255.4136,307.9614,52.0710,0,U,59626,999,11896,.20733396E-3,.3999E-4,0
ALOS-4 (DAICHI-4),2024-123A,2026-06-26T13:25:40.128672,14.79475300,.0001585,97.9217,274.6010,97.0607,263.0785,0,U,60182,999,10726,.2598686E-3,.189E-4,0
LEGION 3,2024-146A,2026-06-26T13:16:53.493888,15.16108789,.00087643,45.0025,340.3206,222.3478,137.6725,0,U,60452,999,10344,.21130491E-3,.388E-4,0
LEGION 4,2024-146B,2026-06-26T13:21:27.279072,15.16099891,.00127257,45.0018,72.2138,359.1464,0.9391,0,U,60453,999,10229,.21432311E-3,.3941E-4,0
SENTINEL-2C,2024-157A,2026-06-26T14:42:51.559200,14.30820155,.00009427,98.5692,252.2619,88.3779,271.7512,0,U,60989,999,9433,.50161908E-4,.88E-6,0
IONOSFERA-M 1,2024-199A,2026-06-26T14:49:08.654592,14.22755862,.00021492,98.7163,50.6896,97.7814,262.3608,0,U,61735,999,12904,.34647397E-4,.34E-6,0
